NORAD_CAT_ID,OBJECT_NAME,OBJECT_TYPE,EPOCH,MEAN_MOTION,ECCENTRICITY,INCLINATION,RA_OF_ASC_NODE,ARG_OF_PERICENTER,MEAN_ANOMALY,BSTAR,MEAN_MOTION_DOT,MEAN_MOTION_DDOT,TLE_LINE0,TLE_LINE1,TLE_LINE2,SEMIMAJOR_AXIS,PERIOD,APOGEE,PERIGEE,DECAYED
53595.0,STARLINK-4684,PAYLOAD,2022-11-20 14:00:01,15.08816042,0.0001416,53.2162,254.0575,69.0442,323.8655,8.9077e-05,1.129e-05,0.0,0 STARLINK-4684,1 53595U 22104H   22324.58334491  .00001129  00000-0  89077-4 0  9994,2 53595  53.2162 254.0575 0001416  69.0442 323.8655 15.08816042  1304,6917.954000000002,95.439,540.798,538.839,0.0
53595.0,STARLINK-4684,PAYLOAD,2022-11-20 22:00:00,15.08839439,0.0001486999999999,53.2163,252.5616,71.2518,333.2188,-0.001005,-0.00016247,0.0,0 STARLINK-4684,1 53595U 22104H   22324.91667824 -.00016247  00000-0 -10050-2 0  9992,2 53595  53.2163 252.5616 0001487  71.2518 333.2188 15.08839439 13451,6917.882,95.438,540.776,538.7180000000002,0.0
53595.0,STARLINK-4684,PAYLOAD,2022-11-21 14:00:01,15.088293900000002,0.0001469,53.216,249.5684,71.1338,356.5142,0.0018699,0.00029588,0.0,0 STARLINK-4684,1 53595U 22104H   22325.58334491  .00029588  00000-0  18699-2 0  9994,2 53595  53.2160 249.5684 0001469  71.1338 356.5142 15.08829390  1302,6917.913000000001,95.438,540.794,538.762,0.0
53595.0,STARLINK-4684,PAYLOAD,2022-11-22 00:00:00,15.0887041,0.0001551,53.2159,247.699,68.639,103.503,-0.0020885,-0.000334,0.0,0 STARLINK-4684,1 53595U 22104H   22326.00001157 -.00033400  00000-0 -20885-2 0  9992,2 53595  53.2159 247.6990 0001551  68.6390 103.5030 15.08870410  1305,6917.7869999999975,95.436,540.725,538.5790000000002,0.0
53595.0,STARLINK-4684,PAYLOAD,2022-11-22 14:00:01,15.08837176,0.0001349,53.2158,245.0792,68.9624,33.5673,-0.00058421,-9.573e-05,0.0,0 STARLINK-4684,1 53595U 22104H   22326.58335648 -.00009573  00000-0 -58421-3 0  9992,2 53595  53.2158 245.0792 0001349  68.9624  33.5673 15.08837176 13708,6917.889,95.438,540.687,538.821,0.0
53595.0,STARLINK-4684,PAYLOAD,2022-11-22 22:00:00,15.08837507,0.0001412,53.2158,243.5835,68.1891,45.8622,-0.0013414999999999,-0.00021573,0.0,0 STARLINK-4684,1 53595U 22104H   22326.91667824 -.00021573  00000-0 -13415-2 0  9990,2 53595  53.2158 243.5835 0001412  68.1891  45.8622 15.08837507  1309,6917.888000000001,95.438,540.73,538.776,0.0
53595.0,STARLINK-4684,PAYLOAD,2022-11-23 14:00:01,15.08802374,0.0001456,53.2157,240.5902,68.6201,68.6081,0.0016515,0.00026066,0.0,0 STARLINK-4684,1 53595U 22104H   22327.58334491  .00026066  00000-0  16515-2 0  9999,2 53595  53.2157 240.5902 0001456  68.6201  68.6081 15.08802374  1304,6917.995,95.44,540.868,538.8530000000002,0.0
53595.0,STARLINK-4684,PAYLOAD,2022-11-23 16:00:00,15.08794594,0.000151,53.2155,240.2158,70.5082,159.6135,0.0030143,0.00047951,0.0,0 STARLINK-4684,1 53595U 22104H   22327.66667824  .00047951  00000-0  30143-2 0  9996,2 53595  53.2155 240.2158 0001510  70.5082 159.6135 15.08794594 13872,6918.019,95.44,540.929,538.84,0.0
53595.0,STARLINK-4684,PAYLOAD,2022-11-23 22:00:00,15.08834845,0.0001608,53.2158,239.0947,68.4006,80.3835,-0.0013640999999999,-0.00021929,0.0,0 STARLINK-4684,1 53595U 22104H   22327.91667824 -.00021929  00000-0 -13641-2 0  9997,2 53595  53.2158 239.0947 0001608  68.4006  80.3835 15.08834845  1303,6917.896,95.438,540.874,538.649,0.0
53595.0,STARLINK-4684,PAYLOAD,2022-11-24 08:00:01,15.08839556,0.0001647,53.2156,237.2248,62.4588,190.7935,-0.00071187,-0.000116,0.0,0 STARLINK-4684,1 53595U 22104H   22328.33334491 -.00011600  00000-0 -71187-3 0  9990,2 53595  53.2156 237.2248 0001647  62.4588 190.7935 15.08839556 13974,6917.882,95.438,540.886,538.607,0.0
53595.0,STARLINK-4684,PAYLOAD,2022-11-24 14:00:01,15.08817042,0.0001571999999999,53.2157,236.1013,68.3588,103.5951,0.0027342,0.00043468,0.0,0 STARLINK-4684,1 53595U 22104H   22328.58334491  .00043468  00000-0  27342-2 0  9995,2 53595  53.2157 236.1013 0001572  68.3588 103.5951 15.08817042  1305,6917.951,95.439,540.903,538.7280000000002,0.0
53595.0,STARLINK-4684,PAYLOAD,2022-11-24 22:00:00,15.08858554,0.0001702,53.2158,234.6059,67.4436,116.0932,-0.0011940999999999,-0.00019252,0.0,0 STARLINK-4684,1 53595U 22104H   22328.91667824 -.00019252  00000-0 -11941-2 0  9995,2 53595  53.2158 234.6059 0001702  67.4436 116.0932 15.08858554 14064,6917.824000000001,95.436,540.866,538.511,0.0
53595.0,STARLINK-4684,PAYLOAD,2022-11-25 14:00:01,15.08827412,0.0001565999999999,53.2157,231.6122,67.6974,139.0766,0.0020181,0.00031965,0.0,0 STARLINK-4684,1 53595U 22104H   22329.58334491  .00031965  00000-0  20181-2 0  9999,2 53595  53.2157 231.6122 0001566  67.6974 139.0766 15.08827412 14168,6917.919,95.438,540.867,538.701,0.0
53595.0,STARLINK-4684,PAYLOAD,2022-11-26 00:00:00,15.08856607,0.0001693,53.2156,229.7432,63.3881,247.8847,-9.3974e-05,-1.784e-05,0.0,0 STARLINK-4684,1 53595U 22104H   22330.00001157 -.00001784  00000-0 -93974-4 0  9998,2 53595  53.2156 229.7432 0001693  63.3881 247.8847 15.08856607  1308,6917.83,95.437,540.866,538.523,0.0
53595.0,STARLINK-4684,PAYLOAD,2022-11-26 14:00:01,15.08833567,0.0001537,53.2155,227.123,68.1161,173.4935,0.0012380999999999,0.00019468,0.0,0 STARLINK-4684,1 53595U 22104H   22330.58334491  .00019468  00000-0  12381-2 0  9998,2 53595  53.2155 227.1230 0001537  68.1161 173.4935 15.08833567 14313,6917.9,95.438,540.828,538.702,0.0
53595.0,STARLINK-4684,PAYLOAD,2022-11-26 22:00:00,15.08837925,0.000168,53.2155,225.6278,65.7789,187.43,-0.0011285,-0.00018202,0.0,0 STARLINK-4684,1 53595U 22104H   22330.91667824 -.00018202  00000-0 -11285-2 0  9993,2 53595  53.2155 225.6278 0001680  65.7789 187.4300 15.08837925  1304,6917.887,95.438,540.914,538.59,0.0
53595.0,STARLINK-4684,PAYLOAD,2022-11-27 06:00:00,15.08840346,0.0001664,53.2151,224.1318,61.5025,203.2895,-0.0019191,-0.00030701,0.0,0 STARLINK-4684,1 53595U 22104H   22331.25001157 -.00030701  00000-0 -19191-2 0  9994,2 53595  53.2151 224.1318 0001664  61.5025 203.2895 15.08840346 14411,6917.879,95.438,540.895,538.5930000000002,0.0
53595.0,STARLINK-4684,PAYLOAD,2022-11-27 14:00:01,15.08792006,0.0001524,53.2151,222.6338,69.5673,206.8129,0.0033102,0.00052719,0.0,0 STARLINK-4684,1 53595U 22104H   22331.58334491  .00052719  00000-0  33102-2 0  9999,2 53595  53.2151 222.6338 0001524  69.5673 206.8129 15.08792006  1300,6918.026999999999,95.441,540.946,538.8380000000002,0.0
53595.0,STARLINK-4684,PAYLOAD,2022-11-27 22:00:00,15.08831972,0.0001626999999999,53.2151,221.1388,65.9539,221.9848,-0.00096302,-0.00015578,0.0,0 STARLINK-4684,1 53595U 22104H   22331.91667824 -.00015578  00000-0 -96302-3 0  9991,2 53595  53.2151 221.1388 0001627  65.9539 221.9848 15.08831972  1306,6917.905,95.438,540.895,538.644,0.0
53595.0,STARLINK-4684,PAYLOAD,2022-11-28 00:00:00,15.08825326,0.0001682,53.2151,220.7651,64.3883,316.4469,-0.00012807,-2.325e-05,0.0,0 STARLINK-4684,1 53595U 22104H   22332.00001157 -.00002325  00000-0 -12807-3 0  9997,2 53595  53.2151 220.7651 0001682  64.3883 316.4469 15.08825326 14523,6917.925,95.438,540.9540000000002,538.627,0.0
53595.0,STARLINK-4684,PAYLOAD,2022-11-28 22:00:01,15.08856708,0.0001641999999999,53.2146,216.6497,67.3142,255.4548,-0.0010737,-0.00017343,0.0,0 STARLINK-4684,1 53595U 22104H   22332.91668981 -.00017343  00000-0 -10737-2 0  9996,2 53595  53.2146 216.6497 0001642  67.3142 255.4548 15.08856708  1306,6917.829000000002,95.436,540.83,538.558,0.0
53595.0,STARLINK-4684,PAYLOAD,2022-11-29 14:00:01,15.08797206,0.0001433,53.2143,213.6554,72.4051,273.5593,0.0032588,0.00051897,0.0,0 STARLINK-4684,1 53595U 22104H   22333.58335648  .00051897  00000-0  32588-2 0  9999,2 53595  53.2143 213.6554 0001433  72.4051 273.5593 15.08797206  1306,6918.011,95.44,540.868,538.885,0.0
53595.0,STARLINK-4684,PAYLOAD,2022-11-29 22:00:00,15.08833966,0.0001556,53.2144,212.1606,66.4062,291.0618,-0.00083598,-0.00013566,0.0,0 STARLINK-4684,1 53595U 22104H   22333.91667824 -.00013566  00000-0 -83598-3 0  9991,2 53595  53.2144 212.1606 0001556  66.4062 291.0618 15.08833966  1307,6917.899,95.438,540.84,538.687,0.0
53595.0,STARLINK-4684,PAYLOAD,2022-11-30 06:00:00,15.08845829,0.0001538,53.2141,210.664,63.3419,305.7035,-0.00098746,-0.00015972,0.0,0 STARLINK-4684,1 53595U 22104H   22334.25001157 -.00015972  00000-0 -98746-3 0  9994,2 53595  53.2141 210.6640 0001538  63.3419 305.7035 15.08845829 14869,6917.863,95.437,540.7919999999998,538.664,0.0
53595.0,STARLINK-4684,PAYLOAD,2022-11-30 14:00:01,15.08820235,0.0001489,53.2144,209.1659,73.1621,307.5476,0.0031754,0.00050584,0.0,0 STARLINK-4684,1 53595U 22104H   22334.58335648  .00050584  00000-0  31754-2 0  9996,2 53595  53.2144 209.1659 0001489  73.1621 307.5476 15.08820235  1302,6917.941,95.439,540.836,538.776,0.0
53595.0,STARLINK-4684,PAYLOAD,2022-11-30 22:00:00,15.08878133,0.0001598,53.2157,207.6714,69.6496,322.5863,-0.0049154,-0.00077754,0.0,0 STARLINK-4684,1 53595U 22104H   22334.91667824 -.00077754  00000-0 -49154-2 0  9990,2 53595  53.2157 207.6714 0001598  69.6496 322.5863 15.08878133 14965,6917.764,95.435,540.734,538.523,0.0
53595.0,STARLINK-4684,PAYLOAD,2022-12-01 14:00:01,15.08818178,0.0001475,53.2146,204.6767,70.4023,345.0386,0.0029759,0.00047364,0.0,0 STARLINK-4684,1 53595U 22104H   22335.58334491  .00047364  00000-0  29759-2 0  9996,2 53595  53.2146 204.6767 0001475  70.4023 345.0386 15.08818178  1305,6917.946999999999,95.439,540.832,538.7919999999998,0.0
53595.0,STARLINK-4684,PAYLOAD,2022-12-01 22:00:00,15.08846798,0.0001614,53.2148,203.182,63.5734,3.454,-0.00058174,-9.536e-05,0.0,0 STARLINK-4684,1 53595U 22104H   22335.91667824 -.00009536  00000-0 -58174-3 0  9997,2 53595  53.2148 203.1820 0001614  63.5734   3.4540 15.08846798 15118,6917.86,95.437,540.841,538.6080000000002,0.0
53595.0,STARLINK-4684,PAYLOAD,2022-12-02 14:00:01,15.08813537,0.0001453999999999,53.2152,200.1874,68.3089,21.8917,0.0023816,0.00037791,0.0,0 STARLINK-4684,1 53595U 22104H   22336.58334491  .00037791  00000-0  23816-2 0  9998,2 53595  53.2152 200.1874 0001454  68.3089  21.8917 15.08813537  1300,6917.9609999999975,95.439,540.832,538.82,0.0
